{
    "links": {
        "self": "http://www.neowsapp.com/rest/v1/neo/3648839?api_key=iIulBulltgU6a56xZRHN4H3l9WmuAYTsLGpBGhQ2"
    },
    "id": "3648839",
    "neo_reference_id": "3648839",
    "name": "(2013 TM4)",
    "designation": "2013 TM4",
    "nasa_jpl_url": "http://ssd.jpl.nasa.gov/sbdb.cgi?sstr=3648839",
    "absolute_magnitude_h": 24.0,
    "estimated_diameter": {
        "kilometers": {
            "estimated_diameter_min": 0.0421264611,
            "estimated_diameter_max": 0.0941976306
        },
        "meters": {
            "estimated_diameter_min": 42.1264610556,
            "estimated_diameter_max": 94.1976305719
        },
        "miles": {
            "estimated_diameter_min": 0.0261761612,
            "estimated_diameter_max": 0.0585316759
        },
        "feet": {
            "estimated_diameter_min": 138.2101784897,
            "estimated_diameter_max": 309.0473542854
        }
    },
    "is_potentially_hazardous_asteroid": false,
    "close_approach_data": [
        {
            "close_approach_date": "2013-09-09",
            "close_approach_date_full": "2013-Sep-09 10:00",
            "epoch_date_close_approach": 1378720800000,
            "relative_velocity": {
                "kilometers_per_second": "7.1347956359",
                "kilometers_per_hour": "25685.2642893485",
                "miles_per_hour": "15959.8243580121"
            },
            "miss_distance": {
                "astronomical": "0.059798521",
                "lunar": "23.261624669",
                "kilometers": "8945731.37075027",
                "miles": "5558619.717162926"
            },
            "orbiting_body": "Earth"
        }
    ],
    "orbital_data": {
        "orbit_id": "8",
        "orbit_determination_date": "2017-04-06 08:44:24",
        "first_observation_date": "2013-10-02",
        "last_observation_date": "2013-10-13",
        "data_arc_in_days": 11,
        "observations_used": 29,
        "orbit_uncertainty": "8",
        "minimum_orbit_intersection": ".0522079",
        "jupiter_tisserand_invariant": "3.194",
        "epoch_osculation": "2456569.5",
        "eccentricity": ".5803734328344657",
        "semi_major_axis": "2.526908304775182",
        "inclination": ".8217037745277914",
        "ascending_node_longitude": "111.6518992069331",
        "orbital_period": "1467.177475515299",
        "perihelion_distance": "1.060357857474889",
        "perihelion_argument": "228.3625036051448",
        "aphelion_distance": "3.993458752075475",
        "perihelion_time": "2456540.000229201081",
        "mean_anomaly": "7.238331875208846",
        "mean_motion": ".2453690886125153",
        "equinox": "J2000",
        "orbit_class": {
            "orbit_class_type": "AMO",
            "orbit_class_description": "Near-Earth asteroid orbits similar to that of 1221 Amor",
            "orbit_class_range": "1.017 AU < q (perihelion) < 1.3 AU"
        }
    },
    "is_sentry_object": false
}